STARLINK-35411          
1 66560U 25268D   25341.91670139 -.02009971  00000+0 -31165-1 0  9993
2 66560  43.0003 149.4239 0001481 281.7817 214.7191 15.56246753  3894
STARLINK-35305          
1 66561U 25268E   25341.91670139 -.02004877  00000+0 -31081-1 0  9991
2 66561  42.9999 149.4141 0001304 282.7767 217.5588 15.56244657  3845
STARLINK-35579          
1 66562U 25268F   25341.91670139 -.02006094  00000+0 -31101-1 0  9998
2 66562  43.0000 149.4187 0001407 283.2990 215.1196 15.56244873  3893
STARLINK-35437          
1 66563U 25268G   25341.91670139 -.02007251  00000+0 -31118-1 0  9993
2 66563  43.0000 149.4092 0001434 282.3984 219.8518 15.56246658  3894
STARLINK-35358          
1 66564U 25268H   25341.91670139 -.02005165  00000+0 -31084-1 0  9998
2 66564  43.0000 149.4049 0001511 283.0726 221.0959 15.56244667  3842
STARLINK-35893          
1 66565U 25268J   25341.91670139 -.01964304  00000+0 -31013-1 0  9999
2 66565  43.0001 149.3998 0001357 283.7672 222.3193 15.56242783  3897
STARLINK-35871          
1 66566U 25268K   25341.91670139 -.01963878  00000+0 -31006-1 0  9997
2 66566  43.0000 149.3950 0001303 283.5378 224.4664 15.56242089  3892
STARLINK-35825          
1 66567U 25268L   25341.91670139 -.02004492  00000+0 -31074-1 0  9992
2 66567  43.0000 149.3902 0001383 278.8108 231.1100 15.56244284  3895
STARLINK-35803          
1 66568U 25268M   25341.91670139 -.02005858  00000+0 -31097-1 0  9995
2 66568  43.0000 149.3851 0001403 280.7556 231.0823 15.56244800  3896
STARLINK-35835          
1 66569U 25268N   25341.91670139 -.02005288  00000+0 -31086-1 0  9991
2 66569  43.0001 149.3805 0001372 280.7292 233.0241 15.56245612  3897
STARLINK-35834          
1 66570U 25268P   25341.91670139 -.02007000  00000+0 -31116-1 0  9991
2 66570  43.0002 149.3748 0001361 279.4257 236.2472 15.56245416  3893
STARLINK-35836          
1 66571U 25268Q   25341.91670139 -.02007021  00000+0 -31114-1 0  9993
2 66571  43.0001 149.3702 0001466 277.9701 239.6169 15.56246516  3898
STARLINK-35870          
1 66572U 25268R   25341.91670139 -.02002628  00000+0 -31041-1 0  9991
2 66572  42.9998 149.3666 0001430 283.4148 236.0886 15.56244367  3898
STARLINK-35650          
1 66573U 25268S   25341.91670139 -.02004877  00000+0 -31078-1 0  9990
2 66573  42.9999 149.3607 0001426 286.4940 234.9261 15.56245570  3894
STARLINK-35812          
1 66574U 25268T   25341.91670139 -.02106205  00000+0 -32783-1 0  9993
2 66574  43.0000 149.3555 0001586 276.2684 247.0838 15.56293375  3892
STARLINK-35810          
1 66575U 25268U   25341.91670139 -.02003745  00000+0 -31060-1 0  9996
2 66575  43.0000 149.3509 0001279 279.5609 245.6926 15.56246259  3895
STARLINK-35814          
1 66576U 25268V   25341.91670139 -.02002866  00000+0 -31048-1 0  9996
2 66576  42.9999 149.3460 0001383 279.6786 247.4971 15.56242458  3897
STARLINK-35815          
1 66577U 25268W   25341.91670139 -.02005746  00000+0 -31094-1 0  9998
2 66577  43.0000 149.3412 0001399 278.9040 250.1859 15.56245570  3896
STARLINK-35743          
1 66578U 25268X   25341.91670139 -.01958531  00000+0 -30913-1 0  9996
2 66578  43.0003 149.3369 0001380 282.2952 248.7143 15.56239244  3891
STARLINK-35868          
1 66579U 25268Y   25341.91670139 -.01954421  00000+0 -30839-1 0  9998
2 66579  43.0002 149.3313 0001254 282.1498 250.7742 15.56240074  3895
STARLINK-35872          
1 66580U 25268Z   25341.91670139 -.01957343  00000+0 -30892-1 0  9995
2 66580  43.0002 149.3276 0001311 278.8945 255.9486 15.56239344  3898
STARLINK-35744          
1 66581U 25268AA  25341.91670139 -.01948400  00000+0 -30737-1 0  9998
2 66581  43.0002 149.3217 0001202 282.1517 254.6099 15.56235056  3843
STARLINK-35746          
1 66582U 25268AB  25341.91670139 -.01951982  00000+0 -30799-1 0  9996
2 66582  43.0003 149.3168 0001328 278.7631 259.9159 15.56235737  3893
STARLINK-35941          
1 66583U 25268AC  25341.91670139 -.01945489  00000+0 -30687-1 0  9998
2 66583  43.0002 149.3120 0001332 282.8783 257.7187 15.56232082  3897
STARLINK-35939          
1 66584U 25268AD  25341.91670139 -.01949894  00000+0 -30764-1 0  9999
2 66584  43.0001 149.3075 0001189 279.9017 262.6128 15.56235136  3896
STARLINK-35963          
1 66585U 25268AE  25341.91670139 -.01963109  00000+0 -30991-1 0  9997
2 66585  43.0000 149.3034 0001426 277.6089 266.8191 15.56242460  3893
TJS-21                  
1 66586U 25269A   25340.74145373  .00001105  00000+0 -14744-1 0  9991
2 66586  63.2668 162.9832 6805236 269.7989  18.6583  2.00560491   328
CZ-3B R/B               
1 66587U 25269B   25340.87286363  .00053807 -49902-6  15660-2 0  9997
2 66587  51.3598 171.0029 7519890 227.6683  38.3691  2.02680311   337
STARLINK-36076          
1 66588U 25270A   25341.91670139 -.01997837  00000+0 -24523-1 0  9992
2 66588  42.9987 221.0976 0001590 267.9986 102.7222 15.62823982  3626
STARLINK-35447          
1 66589U 25270B   25341.91670139 -.02001038  00000+0 -24565-1 0  9999
2 66589  42.9991 221.0873 0001568 266.2138 108.3394 15.62827101  3735
STARLINK-35429          
1 66590U 25270C   25341.91670139 -.02000367  00000+0 -24556-1 0  9995
2 66590  42.9990 221.0921 0001546 265.9131 106.7226 15.62827049  3732
STARLINK-36058          
1 66591U 25270D   25341.91670139 -.01999770  00000+0 -24548-1 0  9991
2 66591  42.9991 221.0827 0001588 269.6548 106.8164 15.62825989  3629
STARLINK-36066          
1 66592U 25270E   25341.91670139 -.02002341  00000+0 -24583-1 0  9991
2 66592  42.9993 221.0780 0001517 266.6354 111.7510 15.62828287  3527
STARLINK-36031          
1 66593U 25270F   25341.91670139 -.02006396  00000+0 -24638-1 0  9997
2 66593  42.9987 221.0730 0001539 266.0241 114.2803 15.62829882  3625
STARLINK-36032          
1 66594U 25270G   25341.91670139 -.01998950  00000+0 -24538-1 0  9992
2 66594  42.9990 221.0685 0001503 267.8537 114.3681 15.62825885  3362
STARLINK-35711          
1 66595U 25270H   25341.91670139 -.01998544  00000+0 -24530-1 0  9994
2 66595  42.9989 221.0631 0001538 267.1229 117.0122 15.62827252  3732
STARLINK-35811          
1 66596U 25270J   25341.91670139 -.01999652  00000+0 -24547-1 0  9994
2 66596  42.9991 221.0585 0001505 270.9929 115.0640 15.62825920  3730
STARLINK-35820          
1 66597U 25270K   25341.91670139 -.02001538  00000+0 -24572-1 0  9991
2 66597  42.9989 221.0538 0001559 267.2787 120.6937 15.62827066  3730
STARLINK-35981          
1 66598U 25270L   25341.91670139 -.02002750  00000+0 -24588-1 0  9996
2 66598  42.9988 221.0487 0001556 265.4194 124.4691 15.62828156  3462
STARLINK-35930          
1 66599U 25270M   25341.91670139 -.01997762  00000+0 -24522-1 0  9990
2 66599  42.9992 221.0446 0001509 267.7980 124.0089 15.62825046  3629
STARLINK-35980          
1 66600U 25270N   25341.91670139 -.02001674  00000+0 -24574-1 0  9999
2 66600  42.9989 221.0397 0001498 268.0878 125.6360 15.62827298  3529
STARLINK-35978          
1 66601U 25270P   25341.91670139 -.02002952  00000+0 -24592-1 0  9990
2 66601  42.9992 221.0345 0001484 269.4580 126.1845 15.62827445  3468
STARLINK-36050          
1 66602U 25270Q   25341.91670139 -.02002685  00000+0 -24588-1 0  9999
2 66602  42.9994 221.0298 0001566 269.2045 128.3546 15.62827113  3524
STARLINK-36048          
1 66603U 25270R   25341.91670139 -.01997347  00000+0 -24514-1 0  9996
2 66603  42.9988 221.0247 0001536 269.9972 129.4750 15.62826276  3523
STARLINK-35977          
1 66604U 25270S   25341.91670139 -.01996299  00000+0 -24504-1 0  9991
2 66604  42.9986 221.0196 0001409 269.1882 132.2056 15.62823457  3626
STARLINK-36052          
1 66605U 25270T   25341.91670139 -.02001702  00000+0 -24575-1 0  9997
2 66605  42.9990 221.0154 0001536 269.4636 133.8460 15.62827011  3623
STARLINK-36063          
1 66606U 25270U   25341.91670139 -.01999383  00000+0 -24545-1 0  9995
2 66606  42.9988 221.0054 0001430 269.1200 138.0240 15.62825614  3627
STARLINK-35993          
1 66607U 25270V   25341.91670139 -.02003304  00000+0 -24596-1 0  9992
2 66607  42.9989 221.0108 0001509 268.8409 136.3853 15.62828141  3521
STARLINK-36036          
1 66608U 25270W   25341.91670139 -.02004729  00000+0 -24615-1 0  9997
2 66608  42.9988 221.0007 0001466 269.6665 139.3921 15.62830128  3464
STARLINK-36034          
1 66609U 25270X   25341.91670139 -.02005437  00000+0 -24623-1 0  9994
2 66609  42.9990 220.9967 0001451 270.9840 139.9888 15.62832208  3464
STARLINK-35680          
1 66610U 25270Y   25341.91670139 -.02001502  00000+0 -24571-1 0  9997
2 66610  42.9989 220.9915 0001454 271.1963 141.6961 15.62828450  3735
STARLINK-35583          
1 66611U 25270Z   25341.91670139 -.02001589  00000+0 -24574-1 0  9996
2 66611  42.9990 220.9862 0001475 269.0052 145.8068 15.62826794  3730
STARLINK-36039          
1 66612U 25270AA  25341.91670139 -.02001182  00000+0 -24568-1 0  9999
2 66612  42.9987 220.9811 0001425 270.8415 145.8868 15.62827255  3628
STARLINK-36037          
1 66613U 25270AB  25341.91670139 -.02002427  00000+0 -24585-1 0  9992
2 66613  42.9987 220.9767 0001413 271.6128 147.0323 15.62828093  3627
STARLINK-36040          
1 66614U 25270AC  25341.91670139 -.02000688  00000+0 -24560-1 0  9993
2 66614  42.9988 220.9666 0001473 274.0078 148.4704 15.62827728  3468
STARLINK-35988          
1 66615U 25270AD  25341.91670139 -.01999740  00000+0 -24547-1 0  9994
2 66615  42.9990 220.9716 0001468 270.8204 149.7394 15.62827769  3461
STARLINK-35391          
1 66616U 25270AE  25341.91670139 -.02003158  00000+0 -24595-1 0  9998
2 66616  42.9990 220.9623 0001405 271.3001 153.0966 15.62828195  3738
STARLINK-35940          
1 66617U 25271A   25341.91670139 -.01951392  00000+0 -17397-1 0  9993
2 66617  53.1591 210.6803 0000948  83.7621 256.2237 15.70788510  3462
STARLINK-35970          
1 66618U 25271B   25341.91670139 -.01959338  00000+0 -17476-1 0  9990
2 66618  53.1593 210.5680 0000668  92.4635 300.8428 15.70793541  3466
